[{"OBJECT_NAME":"STARLINK-2642","OBJECT_ID":"2021-040K","EPOCH":"2026-03-10T00:00:02.999808","MEAN_MOTION":15.26483116,"ECCENTRICITY":0.00011873,"INCLINATION":53.1432,"RA_OF_ASC_NODE":189.485,"ARG_OF_PERICENTER":75.2668,"MEAN_ANOMALY":286.1269,"EPHEMERIS_TYPE":0,"CLASSIFICATION_TYPE":"U","NORAD_CAT_ID":48437,"ELEMENT_SET_NO":999,"REV_AT_EPOCH":574,"BSTAR":0.059854525,"MEAN_MOTION_DOT":0.01729147,"MEAN_MOTION_DDOT":0},{"OBJECT_NAME":"ISS OBJECT YC","OBJECT_ID":"1998-067YC","EPOCH":"2026-03-09T06:24:39.594816","MEAN_MOTION":15.52676056,"ECCENTRICITY":0.00078962,"INCLINATION":51.6312,"RA_OF_ASC_NODE":73.8379,"ARG_OF_PERICENTER":148.506,"MEAN_ANOMALY":211.6404,"EPHEMERIS_TYPE":0,"CLASSIFICATION_TYPE":"U","NORAD_CAT_ID":67686,"ELEMENT_SET_NO":999,"REV_AT_EPOCH":472,"BSTAR":0.00082449301,"MEAN_MOTION_DOT":0.000517,"MEAN_MOTION_DDOT":0}]
